#aV2009  9 26  0  0   .00000000      96 DD+AD WGS84 FIT  NGA
## 1550 518400.00000000   900.00000000 55100  .0000000000000
+   32     1  2  3  4  5  6  7  8  9 10 11 12 13 14 15 16 17
+         18 19 20 21 22 23 24 25 26 27 28 29 30 31 32  0  0
+          0  0  0  0  0  0  0  0  0  0  0  0  0  0  0  0  0
+          0  0  0  0  0  0  0  0  0  0  0  0  0  0  0  0  0
+          0  0  0  0  0  0  0  0  0  0  0  0  0  0  0  0  0
++         0  0  0  0  0  0  0  0  0  0  0  0  0  0  0  0  0
++         0  0  0  0  0  0  0  0  0  0  0  0  0  0  0  0  0
++         0  0  0  0  0  0  0  0  0  0  0  0  0  0  0  0  0
++         0  0  0  0  0  0  0  0  0  0  0  0  0  0  0  0  0
++         0  0  0  0  0  0  0  0  0  0  0  0  0  0  0  0  0
%c cc cc ccc ccc cccc cccc cccc cccc ccccc ccccc ccccc ccccc
%c cc cc ccc ccc cccc cccc cccc cccc ccccc ccccc ccccc ccccc
%f  0.0000000  0.000000000  0.00000000000  0.000000000000000
%f  0.0000000  0.000000000  0.00000000000  0.000000000000000
%i    0    0    0    0      0      0      0      0         0
%i    0    0    0    0      0      0      0      0         0
/*      NGA, ST. LOUIS,MO.                                  
/*   EPHEMERIS COMPUTED FROM  3 DAYS OF DATA                
/* CCCCCCCCCCCCCCCCCCCCCCCCCCCCCCCCCCCCCCCCCCCCCCCCCCCCCCCCC
/* CCCCCCCCCCCCCCCCCCCCCCCCCCCCCCCCCCCCCCCCCCCCCCCCCCCCCCCCC
*  2009  9 26 12  0   .00000000                                                 
P  1  15067.780566   3932.491203  21426.074398    -58.569088                    
V  1    391.353184  27430.046198  -5184.455839      -.009083                    
P  2   3293.854897  17804.874509  19491.705093    175.579600                    
V  2 -22549.940968 -10509.251551  12937.537180       .032448                    
P  3    980.658850 -18804.567070 -18936.871647    452.364915                    
V  3  19779.647258 -13004.654304  14547.016512       .051739                    
P  4  -8715.568114  12982.640546  21338.302850   -283.140528                    
V  4 -24072.246304 -13290.935655  -1368.915655      -.174037                    
P  5   3286.389111  26056.270270  -3707.957079    -80.474116                    
V  5  -2701.109812   4779.398831  31345.095311       .101859                    
P  6   6191.203712 -19297.684717 -16940.266343    245.025217                    
V  6  19506.528884 -10388.242107  18850.003225       .056059                    
P  7 -24067.591641  -5230.950683 -10154.973783     10.750714                    
V  7 -10198.827850  -8038.506080  28216.163809      -.007433                    
P  8 -17884.498488   3818.296087 -19492.650309   -222.793644                    
V  8 -20301.435884 -13582.722045  15491.562304      -.014650                    
P  9  20072.195614  15953.227119  -7694.046795     79.658167                    
V  9  -8787.737041  -2231.688508 -30107.133170       .021548                    
P 10   1338.539584  26279.680699  -1912.402158    -24.432263                    
V 10  -3242.267488   2260.886183  31754.100116      -.009053                    
P 11 -23224.147616 -11870.148593  -6160.751383    -21.409371                    
V 11   8504.831331  -2198.322958 -28521.180979      -.017899                    
P 12  11608.172939  17458.648317  16432.919069   -213.255298                    
V 12  -1279.673330  20723.345390 -21062.547607       .055998                    
P 13 -23726.021290   4450.343266  10971.509423    305.060508                    
V 13  11732.625632  -7920.039541  28242.139159       .004679                    
P 14  21451.021765 -15009.431766   4163.319441    -45.734831                    
V 14   5459.480500   -720.986457 -31855.790058       .051223                    
P 15   5769.381862  14359.065776 -21553.432113   -319.194493                    
V 15 -23422.204535  14333.472746   3347.027521      -.008299                    
P 16   2916.376260 -25929.686069   4236.390755      8.793316                    
V 16   2705.777690   5355.808282  31494.424339      -.039285                    
P 17 -21131.710379  15452.594904   3874.054933     88.058132                    
V 17  -5688.717219   -110.982986 -31358.856272       .031562                    
P 18  15416.944545  -3200.923854 -21106.299295     15.667470                    
V 18    519.745754  27506.151930  -4122.954680       .027769                    
P 19  -7289.924324 -13409.006058 -21692.487549      9.080811                    
V 19  24677.243517 -12503.117202   -294.931026      -.016892                    
P 20 -13647.780113 -14234.156067  17693.310412     71.382238                    
V 20    821.767642 -22826.274172 -17561.090651      -.008947                    
P 21  23352.379929   2449.319209 -12706.407340    -11.473512                    
V 21  12998.933833  10353.176850  24694.749359      -.022796                    
P 22  12325.718173 -16466.169623 -16593.628633    190.094404                    
V 22   2117.554269  21509.048247 -19652.518416      -.008434                    
P 23 -16615.264772  -5950.370589  19908.624440    388.188098                    
V 23  21172.764776 -13760.750388  13237.121610      -.003983                    
P 24  22926.123954  13065.017992  -1208.870526    223.706642                    
V 24   -322.327235   3761.718177  31636.836634       .030948                    
P 25 -24708.859212  -9162.556429  -1995.054486    609.018726                    
V 25  -1660.169786  -3616.680729  31976.928469       .143373                    
P 26  24661.353812  -9798.516214  -4447.427059     61.706850                    
V 26  -3691.388857   3450.001544 -31477.282310      -.010628                    
P 27  17952.005133  16234.866197 -10282.589117     86.022565                    
V 27 -13641.552343  -4023.554672 -28272.398888       .032874                    
P 28 -12672.911793  13846.272887 -18222.936015    -26.093175                    
V 28  -1490.261450 -24159.756510 -17222.520767       .000888                    
P 29  22844.472213  -2250.602482  13416.989369     60.864244                    
V 29 -13560.343272  10332.361863  25039.284995       .033388                    
P 30  15111.530699   5845.052884  20672.306108    180.031775                    
V 30    982.429213  27147.619792  -8177.606302       .030000                    
P 31   6111.501632 -13750.176427  22089.596382    -63.846357                    
V 31  24231.100373  13032.983839   1559.998067       .005210                    
P 32  -8396.283394 -21399.817512  13932.497326    189.377939                    
V 32   2898.167100 -16787.423278 -24449.592703      -.071961                    
EOF
